{
  "type": "FeatureCollection",
  "name": "Opole",
  "crs": {"type": "name", "properties": {"name": "EPSG:4326"}},
  "features": [
    {"type": "Feature", "geometry": {"type": "Point", "coordinates": [19.202119, 49.807112]}, "properties": {"bus": 1, "station": "PŻ (15,75 kV)"}},
    {"type": "Feature", "geometry": {"type": "Point", "coordinates": [19.211576, 49.780418]}, "properties": {"bus": 2, "station": "PŻ - wyjście mocy (220 kV)"}},
    {"type": "Feature", "geometry": {"type": "Point", "coordinates": [19.213015, 49.842482]}, "properties": {"bus": 3, "station": "Bujaków (220 kV)"}},
    {"type": "Feature", "geometry": {"type": "Point", "coordinates": [19.292062, 50.163333]}, "properties": {"bus": 4, "station": "Byczyna (220 kV)"}},
    {"type": "Feature", "geometry": {"type": "Point", "coordinates": [18.852080, 50.231208]}, "properties": {"bus": 5, "station": "Halemba (220 kV)"}},
    {"type": "Feature", "geometry": {"type": "Point", "coordinates": [18.850304, 50.130494]}, "properties": {"bus": 6, "station": "Kopanina (220 kV)"}},
    {"type": "Feature", "geometry": {"type": "Point", "coordinates": [18.542358, 50.122133]}, "properties": {"bus": 7, "station": "Wielopole (220kV)"}},
    {"type": "Feature", "geometry": {"type": "Point", "coordinates": [18.539800, 50.125045]}, "properties": {"bus": 8, "station": "Wielopole (400kV)"}},
    {"type": "Feature", "geometry": {"type": "Point", "coordinates": [17.871761, 50.746219]}, "properties": {"bus": 9, "station": "Opole - wejście mocy (400 kV)"}},
    {"type": "Feature", "geometry": {"type": "Point", "coordinates": [17.883558, 50.751193]}, "properties": {"bus": 10, "station": "Szyna generatorowa/potrzeby własne Opole (22kV)"}}
  ]
}