{
  "type": "FeatureCollection",
  "name": "Porabka_Opole",
  "crs": {
    "type": "name",
    "properties": {
      "name": "EPSG:4326"
    }
  },
  "features": [
    {
      "type": "Feature",
      "geometry": {
        "type": "Point",
        "coordinates": [19.211745, 49.780375]
      },
      "properties": {
        "bus": 1,
        "station": "Porąbka-Żar - Generator SN",
        "voltage_kv": 15.75,
        "description": "Szyna generatorowa w kawernie elektrowni"
      }
    },
    {
      "type": "Feature",
      "geometry": {
        "type": "Point",
        "coordinates": [19.212000, 49.781000]
      },
      "properties": {
        "bus": 2,
        "station": "Porąbka-Żar - Rozdzielnia 110 kV",
        "voltage_kv": 110,
        "description": "Poziom regulacji napięcia (Trafo Blokowe)"
      }
    },
    {
      "type": "Feature",
      "geometry": {
        "type": "Point",
        "coordinates": [19.212772, 49.842428]
      },
      "properties": {
        "bus": 3,
        "station": "Bujaków",
        "voltage_kv": 220,
        "description": "Główny węzeł wyprowadzenia mocy 220 kV"
      }
    },
    {
      "type": "Feature",
      "geometry": {
        "type": "Point",
        "coordinates": [17.872544, 50.746963]
      },
      "properties": {
        "bus": 5,
        "station": "Dobrzeń (Opole)",
        "voltage_kv": 220,
        "description": "Odbiór potrzeb własnych bloku cieplnego"
      }
    }
  ]
}