{
  "type": "FeatureCollection",
  "name": "Porabka_Belchatow_Urealniona",
  "crs": {
    "type": "name",
    "properties": {
      "name": "EPSG:4326"
    }
  },
  "features": [
    {
      "type": "Feature",
      "geometry": {
        "type": "Point",
        "coordinates": [19.211745, 49.780375]
      },
      "properties": {
        "bus": 1,
        "station": "Porąbka-Żar - Generator SN",
        "voltage_kv": 15.75,
        "description": "Szyna generatorowa (kawerna)"
      }
    },
    {
      "type": "Feature",
      "geometry": {
        "type": "Point",
        "coordinates": [19.212000, 49.781000]
      },
      "properties": {
        "bus": 2,
        "station": "Porąbka-Żar - Rozdzielnia 110 kV",
        "voltage_kv": 110,
        "description": "Strona górna trafo blokowego (punkt regulacji)"
      }
    },
    {
      "type": "Feature",
      "geometry": {
        "type": "Point",
        "coordinates": [19.212772, 49.842428]
      },
      "properties": {
        "bus": 3,
        "station": "Bujaków",
        "voltage_kv": 220,
        "description": "Wyprowadzenie mocy na sieć przesyłową"
      }
    },
    {
      "type": "Feature",
      "geometry": {
        "type": "Point",
        "coordinates": [19.293988, 50.163212]
      },
      "properties": {
        "bus": 4,
        "station": "Byczyna",
        "voltage_kv": 220,
        "description": "Węzeł tranzytowy (rozbudowana stacja systemowa) [1]"
      }
    },
    {
      "type": "Feature",
      "geometry": {
        "type": "Point",
        "coordinates": [19.332399, 50.377021]
      },
      "properties": {
        "bus": 5,
        "station": "Tucznawa",
        "voltage_kv": 220,
        "description": "Węzeł tranzytowy"
      }
    },
    {
      "type": "Feature",
      "geometry": {
        "type": "Point",
        "coordinates": [19.328516, 51.31616]
      },
      "properties": {
        "bus": 6,
        "station": "Rogowiec (Bełchatów)",
        "voltage_kv": 220,
        "description": "Odbiór rozruchowy bloku 380 MW [2, 3]"
      }
    }
  ]
}